{"fetched_at":"2026-03-29T16:36:15Z","count":15609,"tles":[{"name":"STARLINK-35413","line1":"1 65886U 25224E   26087.80085427  .00031998  00000+0  10878-2 0  9990","line2":"2 65886  53.1592 282.3455 0000948  91.0139 269.0971 15.30200146 27705","category":"Starlink"}]}